{
    "links": {
        "self": "http://www.neowsapp.com/rest/v1/neo/3802053?api_key=iIulBulltgU6a56xZRHN4H3l9WmuAYTsLGpBGhQ2"
    },
    "id": "3802053",
    "neo_reference_id": "3802053",
    "name": "(2018 FN3)",
    "designation": "2018 FN3",
    "nasa_jpl_url": "http://ssd.jpl.nasa.gov/sbdb.cgi?sstr=3802053",
    "absolute_magnitude_h": 25.7,
    "estimated_diameter": {
        "kilometers": {
            "estimated_diameter_min": 0.0192555078,
            "estimated_diameter_max": 0.0430566244
        },
        "meters": {
            "estimated_diameter_min": 19.2555078188,
            "estimated_diameter_max": 43.0566244241
        },
        "miles": {
            "estimated_diameter_min": 0.0119648141,
            "estimated_diameter_max": 0.0267541378
        },
        "feet": {
            "estimated_diameter_min": 63.1742402722,
            "estimated_diameter_max": 141.2618956756
        }
    },
    "is_potentially_hazardous_asteroid": false,
    "close_approach_data": [
        {
            "close_approach_date": "2018-03-17",
            "close_approach_date_full": "2018-Mar-17 23:08",
            "epoch_date_close_approach": 1521328080000,
            "relative_velocity": {
                "kilometers_per_second": "6.6797643799",
                "kilometers_per_hour": "24047.1517676278",
                "miles_per_hour": "14941.9649413907"
            },
            "miss_distance": {
                "astronomical": "0.0189717779",
                "lunar": "7.3800216031",
                "kilometers": "2838137.563953073",
                "miles": "1763536.9059474874"
            },
            "orbiting_body": "Earth"
        }
    ],
    "orbital_data": {
        "orbit_id": "8",
        "orbit_determination_date": "2018-04-20 06:26:26",
        "first_observation_date": "2018-03-20",
        "last_observation_date": "2018-04-19",
        "data_arc_in_days": 30,
        "observations_used": 95,
        "orbit_uncertainty": "7",
        "minimum_orbit_intersection": ".0153622",
        "jupiter_tisserand_invariant": "3.700",
        "epoch_osculation": "2458200.5",
        "eccentricity": ".4937249096928867",
        "semi_major_axis": "1.980159629332537",
        "inclination": "1.881433225959556",
        "ascending_node_longitude": "187.7938626502415",
        "orbital_period": "1017.767854702818",
        "perihelion_distance": "1.00250549516283",
        "perihelion_argument": "335.1810224869863",
        "aphelion_distance": "2.957813763502243",
        "perihelion_time": "2458183.949422635961",
        "mean_anomaly": "5.854191428352586",
        "mean_motion": ".3537152390267992",
        "equinox": "J2000",
        "orbit_class": {
            "orbit_class_type": "APO",
            "orbit_class_description": "Near-Earth asteroid orbits which cross the Earth’s orbit similar to that of 1862 Apollo",
            "orbit_class_range": "a (semi-major axis) > 1.0 AU; q (perihelion) < 1.017 AU"
        }
    },
    "is_sentry_object": false
}